CELESTIS-02             
1 25160U 98007D   22332.63008781 -.00000020  00000+0  48691-4 0  9997
2 25160 107.9833 237.3704 0062711 190.9768 230.3484 14.21666409286199
CELESTIS-03             
1 26034U 99070C   22332.78036257  .00018352  00000+0  72844-3 0  9996
2 26034  98.3038 355.7623 0007069 294.7877  65.2622 15.25397960246063
